STARLINK-30499          
1 57918U 23147F   23313.32319178  .00001442  00000+0  85664-4 0  9996
2 57918  42.9984 283.7230 0001200 264.0195  96.0515 15.15969020  8410
STARLINK-30496          
1 57919U 23147G   23313.32090991  .00067558  00000+0  34327-2 0  9994
2 57919  42.9986 283.7075 0001739 281.8992  78.1661 15.16008866  8415
STARLINK-30485          
1 57920U 23147H   23313.64809607 -.00006029  00000+0 -29703-3 0  9994
2 57920  42.9993 281.8627 0000978 264.1247  95.9489 15.15952098  8462
STARLINK-30492          
1 57921U 23147J   23313.64580980  .00001933  00000+0  11084-3 0  9995
2 57921  42.9983 281.8431 0000933 243.2016 116.8736 15.15947730  8351
STARLINK-30440          
1 57923U 23147L   23313.64125067 -.00001520  00000+0 -65958-4 0  9992
2 57923  42.9993 281.8096 0000806 263.8850  96.1906 15.15962031  8477
STARLINK-30487          
1 57924U 23147M   23313.29813848  .00013014  00000+0  67600-3 0  9999
2 57924  42.9972 283.5394 0001715 259.5373 100.5281 15.16001659  8418
STARLINK-30452          
1 57925U 23147N   23313.63898255  .00004816  00000+0  25812-3 0  9992
2 57925  42.9975 281.7955 0000766 303.8142  56.2632 15.15970717  8402
STARLINK-30468          
1 57926U 23147P   23313.30726443  .00027274  00000+0  14017-2 0  9993
2 57926  42.9952 283.6058 0000288 278.3197  81.7618 15.15983284  8385
STARLINK-30459          
1 57927U 23147Q   23313.30497551  .00016887  00000+0  87308-3 0  9991
2 57927  42.9978 283.5900 0001388 256.5120 103.5573 15.16004741  8381
STARLINK-30448          
1 57928U 23147R   23313.30269766  .00009217  00000+0  48245-3 0  9993
2 57928  42.9984 283.5694 0001703 268.5204  91.5448 15.16002937  8388
STARLINK-30475          
1 57929U 23147S   23313.34580455  .00014247  00000+0  73923-3 0  9999
2 57929  42.9996 283.0337 0000409 257.9870 102.0931 15.15980267  8390
STARLINK-30476          
1 57930U 23147T   23313.91667824 -.00754744  00000+0 -85076-2 0  9996
2 57930  43.0005 267.3812 0001818 260.7393  36.6501 15.64032877  8591
STARLINK-30488          
1 57931U 23147U   23313.36630141  .00007305  00000+0  38490-3 0  9999
2 57931  42.9974 283.1882 0001695 239.9050 120.1629 15.16005826  8422
STARLINK-30471          
1 57932U 23147V   23313.41399481  .00004261  00000+0  22983-3 0  9993
2 57932  42.9988 282.6883 0001739 247.2991 112.7673 15.15965723  8402
STARLINK-30461          
1 57933U 23147W   23313.36175682  .00065886  00000+0  33472-2 0  9997
2 57933  42.9983 283.1529 0001132 224.8553 135.2202 15.16026287  8393
STARLINK-30458          
1 57934U 23147X   23313.29357442  .00004537  00000+0  24363-3 0  9992
2 57934  42.9974 283.5046 0003523 258.1104 101.9348 15.16009841  8387
STARLINK-30712          
1 57935U 23148A   23313.56943455  .00000745  00000+0  50542-4 0  9995
2 57935  53.0558   7.2221 0001343  90.8523 269.2625 15.18740169  8281
STARLINK-30716          
1 57936U 23148B   23313.56475629  .00001688  00000+0  95384-4 0  9999
2 57936  53.0567   7.1950 0001512  82.7896 277.3270 15.18741714  8284
STARLINK-30400          
1 57937U 23148C   23313.52890301 -.00011752  00000+0 -54549-3 0  9996
2 57937  53.0537   6.9745 0001677 125.8317 234.2833 15.18686517  8286
STARLINK-30710          
1 57938U 23148D   23313.91667824 -.00905336  00000+0 -21454-1 0  9999
2 57938  53.0539 359.9184 0000795 111.2955 330.2382 15.43730030  8323
STARLINK-30714          
1 57939U 23148E   23313.56438355  .00001727  00000+0  97290-4 0  9999
2 57939  53.0566   7.1929 0001611  97.2168 262.9009 15.18721284  8285
STARLINK-30711          
1 57940U 23148F   23313.55967976  .00004726  00000+0  23966-3 0  9996
2 57940  53.0556   7.1632 0001684  82.3497 277.7688 15.18755298  8286
STARLINK-30715          
1 57941U 23148G   23313.42768778  .00008948  00000+0  44028-3 0  9994
2 57941  53.0560   7.7678 0001425  84.8997 275.2160 15.18729195  8266
STARLINK-30455          
1 57942U 23148H   23313.42302190  .00004148  00000+0  21249-3 0  9995
2 57942  53.0542   7.7352 0001670  84.6284 275.4901 15.18705813  8261
STARLINK-30456          
1 57943U 23148J   23313.42263595  .00007734  00000+0  38289-3 0  9997
2 57943  53.0536   7.7352 0001711  72.9422 287.1759 15.18709709  8264
STARLINK-30708          
1 57944U 23148K   23313.54954735  .00006667  00000+0  33186-3 0  9999
2 57944  53.0522   7.1007 0001752 108.5390 251.5795 15.18743347  8289
STARLINK-30705          
1 57945U 23148L   23313.54916589 -.00002045  00000+0 -82169-4 0  9999
2 57945  53.0525   7.0935 0001339 115.7756 244.3376 15.18725820  8280
STARLINK-30704          
1 57946U 23148M   23313.58334491 -.01025969  00000+0 -28892-1 0  9991
2 57946  53.0554   2.8354 0001390 108.6190 354.8968 15.38472276  5996
STARLINK-30706          
1 57947U 23148N   23313.47828059  .00005953  00000+0  29802-3 0  9990
2 57947  53.0532   7.3654 0001668  77.7522 282.3659 15.18737846  8270
STARLINK-30709          
1 57948U 23148P   23313.45841415  .00006765  00000+0  33703-3 0  9997
2 57948  53.0554   7.2507 0001697 101.8851 258.2334 15.18691237  8272
STARLINK-30707          
1 57949U 23148Q   23313.47321739  .00001732  00000+0  97490-4 0  9995
2 57949  53.0520   7.3302 0001368 110.7544 249.3597 15.18734486  8279
STARLINK-30701          
1 57950U 23148R   23313.46852412  .00003126  00000+0  16372-3 0  9991
2 57950  53.0542   7.3048 0001828  69.0598 291.0592 15.18750650  8278
STARLINK-30399          
1 57951U 23148S   23313.46815155  .00006177  00000+0  30864-3 0  9996
2 57951  53.0526   7.3037 0001977  67.5445 292.5758 15.18744218  8271
STARLINK-30713          
1 57952U 23148T   23313.52927494  .00007315  00000+0  36284-3 0  9991
2 57952  53.0542   6.9771 0002236 112.3438 247.7794 15.18722401  8283
STARLINK-30700          
1 57953U 23148U   23313.91667824 -.01645651  00000+0 -33686-1 0  9998
2 57953  53.0545 356.5848 0001065 116.7687 157.9994 15.48726108  8374
STARLINK-30703          
1 57954U 23148V   23313.91667824 -.01642461  00000+0 -34303-1 0  9992
2 57954  53.0545 356.5733 0001488 111.2268 168.4929 15.48146930  8376
STARLINK-30702          
1 57955U 23148W   23313.91667824 -.01644227  00000+0 -33770-1 0  9992
2 57955  53.0545 356.5811 0001090 127.5896 148.7948 15.48628166  8378
SKYKRAFT-3D             
1 57956U 23084BZ  23313.83380567  .00010849  00000+0  57294-3 0  9992
2 57956  97.5257  68.5513 0012689  60.5031 299.7465 15.15620113  9149
YAOGAN-33 04            
1 57958U 23149A   23313.74564724  .00001516  00000+0  32967-3 0  9996
2 57958  98.0762 265.9715 0001507 106.2432 253.8934 14.59398231  6403
NOOR-3                  
1 57962U 23150A   23313.83801658  .00034000  00000+0  78091-3 0  9995
2 57962  60.0130 184.5074 0011704 341.1076  18.9577 15.42441645  6688
STARLINK-30396          
1 57964U 23151A   23313.39001235  .00004570  00000+0  24554-3 0  9996
2 57964  42.9996 296.5748 0001207 260.9341  99.1370 15.15975666  7533
STARLINK-30524          
1 57965U 23151B   23313.45180475  .00014349  00000+0  72941-3 0  9996
2 57965  42.9995 296.1783 0004176 238.1779 121.8662 15.16694472  7540
STARLINK-30521          
1 57966U 23151C   23313.44906871  .00001322  00000+0  79487-4 0  9992
2 57966  43.0027 296.1573 0001181 274.2666  85.8046 15.15974036  7546
STARLINK-30528          
1 57967U 23151D   23313.38546347 -.00002053  00000+0 -93220-4 0  9999
2 57967  42.9999 296.5409 0001246 280.2493  79.8213 15.15966670  7535
STARLINK-30495          
1 57968U 23151E   23313.31500443  .00007264  00000+0  38327-3 0  9993
2 57968  43.0007 296.8702 0000972 261.3471  98.7266 15.15964864  7528
STARLINK-30484          
1 57969U 23151F   23313.37860900  .00002235  00000+0  12614-3 0  9991
2 57969  43.0010 296.4861 0001273 257.0847 102.9858 15.15991679  7539
STARLINK-30494          
1 57970U 23151G   23313.40354655  .00000562  00000+0  40648-4 0  9992
2 57970  43.0007 295.8144 0001008 219.7039 140.3735 15.15960406  7543
STARLINK-30498          
1 57971U 23151H   23313.33535903  .00002357  00000+0  13240-3 0  9993
2 57971  43.0015 296.1615 0001187 291.4266  68.6454 15.15984643  7535
STARLINK-30505          
1 57972U 23151J   23313.41267743 -.00001165  00000+0 -47782-4 0  9994
2 57972  43.0013 295.8848 0001823 272.4426  87.6213 15.15936899  7547
STARLINK-30502          
1 57973U 23151K   23313.35129570  .00010624  00000+0  55465-3 0  9997
2 57973  42.9983 296.2848 0002149 291.5529  68.5089 15.15974947  7539
STARLINK-30489          
1 57974U 23151L   23313.66941580  .00020867  00000+0  10800-2 0  9998
2 57974  42.9970 294.3738 0000206 331.7055  28.3781 15.15857221  7523
STARLINK-30503          
1 57975U 23151M   23312.85714102 -.00878407  00000+0 -37477-1 0  9998
2 57975  42.9986 297.7327 0004449 237.6373 122.4048 15.25069475  7475
STARLINK-30512          
1 57976U 23151N   23313.39417078  .00060057  00000+0  12212-2 0  9994
2 57976  42.9978 294.0167 0001971 147.3844 212.7136 15.45463083  7562
STARLINK-30509          
1 57977U 23151P   23313.58334491  .00012728  00000+0  95610-3 0  9999
2 57977  42.9998 296.8497 0000975 248.7302 243.1288 15.02515445  6017
STARLINK-30511          
1 57978U 23151Q   23313.58334491  .00012582  00000+0  94433-3 0  9990
2 57978  42.9999 296.7632 0000430 278.8624 248.9135 15.02553350  6017
STARLINK-30508          
1 57979U 23151R   23313.58334491  .00011611  00000+0  87334-3 0  9995
2 57979  42.9997 296.7202 0001456 252.6052 293.3265 15.02529310  6010
STARLINK-30504          
1 57980U 23151S   23313.58334491  .00003208  00000+0  25256-3 0  9995
2 57980  42.9993 296.8065 0001369 269.5087 240.3679 15.02520599  6015
STARLINK-30510          
1 57981U 23151T   23313.58334491  .00012395  00000+0  93121-3 0  9999
2 57981  42.9993 296.6774 0001484 267.0384 296.9348 15.02526727  6011
STARLINK-30507          
1 57982U 23151U   23313.58334491  .00008548  00000+0  64735-3 0  9994
2 57982  42.9991 296.6345 0001242 276.5587 305.4551 15.02520924  6011
